satname,norad_id,inclination_deg,eccentricity,mean_motion_rev_per_day,perigee_km,apogee_km,l1,l2
STARLINK-1167,45071,53.0551,0.0001372,15.0641535,546.2143614310125,548.1146641661244,1 45071U 20006AD  25290.81214389  .00015026  00000+0  10250-2 0  9992,2 45071  53.0551 188.0205 0001372  84.6707 275.4439 15.06415350315202
STARLINK-1168,45072,53.0545,0.0001118,15.06408913,546.4099900969295,547.9584919264189,1 45072U 20006AE  25290.74948863  .00014234  00000+0  97230-3 0  9990,2 45072  53.0545 188.3017 0001118  83.1087 277.0029 15.06408913315191
STARLINK-1172,45074,53.0546,0.00014,15.06399517,546.2434892587507,548.1825872694653,1 45074U 20006AG  25290.42881257  .00002841  00000+0  20954-3 0  9990,2 45074  53.0546 189.7450 0001400  94.2895 265.8254 15.06399517315143
STARLINK-1153,45080,53.0541,0.0001584,15.06433572,546.011707590842,548.2056254179897,1 45080U 20006AN  25290.87112300  .00019043  00000+0  12927-2 0  9994,2 45080  53.0541 187.7565 0001584  97.4389 262.6780 15.06433572315213
STARLINK-1151,45081,53.053,0.0001214,15.0641207,546.3338325496416,548.0152981977144,1 45081U 20006AP  25290.85638697  .00008739  00000+0  60464-3 0  9995,2 45081  53.0530 187.8982 0001214  96.4707 263.6420 15.06412070315211
STARLINK-1190,45083,53.0435,0.000583,15.82957915,318.1747048950374,325.98715900369007,1 45083U 20006AR  25290.91668980  .00230900  00000+0  10359-2 0  9996,2 45083  53.0435 146.1314 0005830 146.8564 208.1022 15.82957915  6027
STARLINK-1173,45084,53.0369,0.0002442,16.0204108,267.14386900457794,270.39021693916584,1 45084U 20006AS  25290.83980242  .00561660  15422-3  95558-3 0  9999,2 45084  53.0369 107.7608 0002442 325.0287  35.0582 16.02041080316338
STARLINK-1185,45087,53.0504,0.0002759,15.06409946,545.2703797915783,549.0917703053901,1 45087U 20006AV  25290.83240705  .00015678  00000+0  10688-2 0  9990,2 45087  53.0504 167.9226 0002759 138.7502 221.3696 15.06409946315490
STARLINK-1183,45088,53.0555,0.0001656,15.06409184,546.0365773840513,548.3302435039905,1 45088U 20006AW  25290.85453910  .00006631  00000+0  46352-3 0  9994,2 45088  53.0555 167.8318 0001656  86.1866 273.9313 15.06409184315495
STARLINK-1176,45090,53.0422,0.000491,15.97856347,277.09800566842387,283.6366569217553,1 45090U 20006AY  25290.91668980  .00551428  14050-3  11909-2 0  9991,2 45090  53.0422 105.7172 0004910 327.5564 336.1948 15.97856347  6066
STARLINK-1142,45093,53.0343,0.0002776,15.56718258,395.2816370832179,399.04328334352886,1 45093U 20006BB  25290.80473455  .00155433  00000+0  21022-2 0  9992,2 45093  53.0343 106.4817 0002776 201.0174 159.0723 15.56718258316358
STARLINK-1152,45096,53.05,0.0009644,15.2280692,490.7479857946355,504.0094805407689,1 45096U 20006BE  25290.81416664  .00026371  00000+0  11223-2 0  9995,2 45096  53.0500 151.8555 0009644 122.7585 237.4341 15.22806920315718
STARLINK-1184,45098,53.0555,0.0001457,15.06423558,546.1303442369699,548.1483697674012,1 45098U 20006BG  25290.86926421  .00015637  00000+0  10657-2 0  9992,2 45098  53.0555 167.7665 0001457  71.4876 288.6271 15.06423558315494
STARLINK-1193,45100,53.054,0.0001229,15.06413212,546.3199449958738,548.0221857183387,1 45100U 20006BJ  25290.86559981  .00011670  00000+0  80079-3 0  9998,2 45100  53.0540 167.7811 0001229  81.7937 278.3192 15.06413212315498
STARLINK-1143,45179,53.0534,0.0007384,15.38260375,446.2105723714694,456.2962161056803,1 45179U 20012B   25290.43011543  .00091509  00000+0  23715-2 0  9993,2 45179  53.0534 296.7137 0007384 350.1216   9.9640 15.38260375313716
STARLINK-1202,45183,53.0552,0.0001653,15.06431074,545.971577866686,548.2610666150185,1 45183U 20012F   25290.79554905  .00007701  00000+0  53487-3 0  9992,2 45183  53.0552 328.0963 0001653  77.1401 282.9773 15.06431074313308
STARLINK-1216,45185,53.0547,0.0001431,15.06426086,546.140603321076,548.1226151970459,1 45185U 20012H   25290.52279954  .00013035  00000+0  89174-3 0  9992,2 45185  53.0547 329.3199 0001431  73.4507 286.6639 15.06426086313207
STARLINK-1225,45187,53.0544,0.0001296,15.06442513,546.1837564933849,547.9787730676162,1 45187U 20012K   25290.80659245  .00013560  00000+0  92639-3 0  9993,2 45187  53.0544 328.0466 0001296  66.1920 293.9204 15.06442513313297
STARLINK-1230,45189,53.0553,0.000139,15.06403902,546.2369771088361,548.1622206833281,1 45189U 20012M   25290.81031003  .00004675  00000+0  33250-3 0  9993,2 45189  53.0553 328.0321 0001390  90.6413 269.4735 15.06403902310522
STARLINK-1234,45190,53.0532,0.0001594,15.23175124,495.1748749664657,497.36643612705484,1 45190U 20012N   25290.91668980  .01801654  00000+0  68550-1 0  9998,2 45190  53.0532 287.0463 0001594  94.9119 282.9108 15.23175124  5838
STARLINK-1269,45197,53.0543,0.0001337,15.06412729,546.2466317750441,548.0984595475538,1 45197U 20012V   25290.82135367  .00004675  00000+0  33240-3 0  9990,2 45197  53.0543 327.9832 0001337  89.0656 271.0486 15.06412729313271
STARLINK-1154,45198,53.0537,0.0001522,15.06405669,546.1401479181486,548.2482187303531,1 45198U 20012W   25290.74579179  .00001967  00000+0  15092-3 0  9991,2 45198  53.0537 308.3209 0001522  94.2943 265.8220 15.06405669313518
STARLINK-1199,45201,53.0542,0.0001376,15.06409085,546.2307897314677,548.1366379919218,1 45201U 20012Z   25290.42511639  .00004431  00000+0  31608-3 0  9998,2 45201  53.0542 309.7599 0001376  93.5997 266.5149 15.06409085313529
STARLINK-1209,45206,53.0546,0.0001306,15.19706889,505.82657955689047,507.6249057052664,1 45206U 20012AE  25290.91668980  .01845851  00000+0  77517-1 0  9996,2 45206  53.0546 287.2424 0001306  65.0797 193.7598 15.19706889  5837
STARLINK-1210,45207,53.0253,0.0012909,15.52902785,399.4952799967132,417.0163890168433,1 45207U 20012AF  25290.61795700  .00176398  00000+0  27271-2 0  9990,2 45207  53.0253 253.5289 0012909   9.1829 350.9414 15.52902785314336
STARLINK-1231,45212,53.0523,0.0004464,15.11034481,529.9587065932164,536.1290088629949,1 45212U 20012AL  25290.35770705  .00037873  00000+0  22450-2 0  9993,2 45212  53.0523 308.9257 0004464 342.4586  17.6250 15.11034481313486
STARLINK-1271,45217,53.0541,0.0001425,15.06396282,546.2360893029081,548.2098168895409,1 45217U 20012AR  25290.74212333  .00001841  00000+0  14250-3 0  9995,2 45217  53.0541 308.3326 0001425  83.3763 276.7388 15.06396282313578
STARLINK-1191,45222,53.0546,0.0001346,15.06428333,546.192582507123,548.0568629628833,1 45222U 20012AW  25290.41956249 -.00004423  00000+0 -27801-3 0  9993,2 45222  53.0546 289.7829 0001346  86.6013 273.5130 15.06428333313804
STARLINK-1212,45223,53.0539,0.0001432,15.06404622,546.205684325223,548.1891000951518,1 45223U 20012AX  25290.70348748  .00002323  00000+0  17479-3 0  9990,2 45223  53.0539 289.1639 0001432  77.1213 282.9936 15.06404622313840
STARLINK-1215,45225,53.0547,0.0001422,15.06395533,546.2404621719797,548.210035195505,1 45225U 20012AZ  25290.72552397  .00000215  00000+0  33338-4 0  9992,2 45225  53.0547 288.4083 0001422  92.1610 267.9542 15.06395533313805
STARLINK-1217,45226,53.0332,0.0003588,16.19297208,219.09277599002598,223.82864730790607,1 45226U 20012BA  25290.32146113  .01533404  11792-4  81589-3 0  9991,2 45226  53.0332 223.4861 0003588 210.3670 149.7160 16.19297208314636
STARLINK-1221,45227,53.067,0.0001627,15.36184195,456.2932272109956,458.5175126981776,1 45227U 20012BB  25290.78987132  .00022017  00000+0  62438-3 0  9995,2 45227  53.0670 223.8320 0001627 299.4933  60.5907 15.36184195314703
STARLINK-1222,45228,53.0547,0.0001403,15.06401778,546.2344829915755,548.177734267857,1 45228U 20012BC  25290.69235179  .00001376  00000+0  11128-3 0  9998,2 45228  53.0547 288.5585 0001403  81.3866 278.7282 15.06401778313730
STARLINK-1226,45229,53.0557,0.0001553,15.06392811,546.1580812226712,548.309101328322,1 45229U 20012BD  25290.72185097  .00000730  00000+0  67930-4 0  9992,2 45229  53.0557 288.4248 0001553  87.1895 272.9272 15.06392811313742
STARLINK-1227,45230,53.0554,0.0001504,15.06392645,546.192524232235,548.2756758591295,1 45230U 20012BE  25290.71816245  .00000960  00000+0  83324-4 0  9999,2 45230  53.0554 288.4421 0001504  85.7841 274.3320 15.06392645313863
STARLINK-1246,45235,53.0551,0.000133,15.06429596,546.1997926516442,548.0419112402615,1 45235U 20012BK  25290.40115029  .00011441  00000+0  78507-3 0  9994,2 45235  53.0551 329.8656 0001330 103.4473 256.6664 15.06429596313265
STARLINK-1270,45237,53.0539,0.000128,15.064008,546.3226617530081,548.0955503561581,1 45237U 20012BM  25290.73657443  .00000991  00000+0  85409-4 0  9991,2 45237  53.0539 288.3578 0001280 107.1065 253.0064 15.06400800313854
STARLINK-1279,45360,53.0532,0.0001296,15.19975944,505.0210737903644,506.80541961430845,1 45360U 20019A   25290.91668980  .01804152  00000+0  75346-1 0  9991,2 45360  53.0532  57.2361 0001296  65.8004 219.5938 15.19975944  5830
STARLINK-1301,45361,53.0539,0.0001642,15.2162077,499.82183953820277,502.08093216411544,1 45361U 20019B   25290.91668980  .01770808  00000+0  70632-1 0  9995,2 45361  53.0539  67.1545 0001642  88.0668 304.2944 15.21620770  5746
STARLINK-1306,45362,53.047,0.0005724,15.64659523,370.3530957951625,378.08319196387674,1 45362U 20019C   25290.91668980  .00149722  00000+0  14939-2 0  9999,2 45362  53.0470  60.7550 0005724 218.8279  14.2285 15.64659523  5978
STARLINK-1262,45366,53.0541,0.0001217,15.06402483,546.361133917987,548.0467619047095,1 45366U 20019G   25290.84716384  .00001005  00000+0  86347-4 0  9992,2 45366  53.0541  87.8594 0001217  88.4522 271.6606 15.06402483308209
STARLINK-1273,45367,53.0536,0.0001297,15.06400018,546.3132850700613,548.1097204716798,1 45367U 20019H   25290.80292716  .00000998  00000+0  85865-4 0  9991,2 45367  53.0536  88.0607 0001297  83.0371 277.0765 15.06400018308199
STARLINK-1276,45368,53.0541,0.0001294,15.06390564,546.3443342245437,548.1366219158681,1 45368U 20019J   25290.83978404  .00002591  00000+0  19285-3 0  9993,2 45368  53.0541  87.8964 0001294  93.3556 266.7581 15.06390564308202
